NORAD_CAT_ID,OBJECT_NAME,OBJECT_TYPE,EPOCH,MEAN_MOTION,ECCENTRICITY,INCLINATION,RA_OF_ASC_NODE,ARG_OF_PERICENTER,MEAN_ANOMALY,BSTAR,MEAN_MOTION_DOT,MEAN_MOTION_DDOT,TLE_LINE0,TLE_LINE1,TLE_LINE2,SEMIMAJOR_AXIS,PERIOD,APOGEE,PERIGEE,DECAYED
53923.0,STARLINK-5004,PAYLOAD,2024-01-01 03:23:35,15.08837979,0.0001537,53.2171,298.7725,84.9868,275.1299,0.00013192,1.812e-05,0.0,0 STARLINK-5004,1 53923U 22119AP  24001.14138878  .00001812  00000-0  13192-3 0  9995,2 53923  53.2171 298.7725 0001537  84.9868 275.1299 15.08837979 70854,6917.887,95.438,540.815,538.688,0.0
53923.0,STARLINK-5004,PAYLOAD,2024-01-01 04:58:59,15.0884109,0.000153,53.2171,298.4747,88.178,271.9387,0.00018643,2.68e-05,0.0,0 STARLINK-5004,1 53923U 22119AP  24001.20762750  .00002680  00000-0  18643-3 0  9994,2 53923  53.2171 298.4747 0001530  88.1780 271.9387 15.08841090 71286,6917.877,95.437,540.8,538.684,0.0
53923.0,STARLINK-5004,PAYLOAD,2024-01-02 01:38:59,15.08852755,0.0001577,53.2172,294.6088,80.0685,280.0485,0.00023105,3.392e-05,0.0,0 STARLINK-5004,1 53923U 22119AP  24002.06874247  .00003392  00000-0  23105-3 0  9994,2 53923  53.2172 294.6088 0001577  80.0685 280.0485 15.08852755 70996,6917.841,95.437,540.797,538.615,0.0
53923.0,STARLINK-5004,PAYLOAD,2024-01-02 04:49:45,15.08858677,0.0001604,53.2172,294.0132,82.6498,277.4676,0.00041431,6.315e-05,0.0,0 STARLINK-5004,1 53923U 22119AP  24002.20122024  .00006315  00000-0  41431-3 0  9999,2 53923  53.2172 294.0132 0001604  82.6498 277.4676 15.08858677 71432,6917.823,95.436,540.798,538.579,0.0
53923.0,STARLINK-5004,PAYLOAD,2024-01-03 01:29:46,15.08845886,0.0001584,53.2174,290.1454,77.3363,282.7806,0.00014259,1.982e-05,0.0,0 STARLINK-5004,1 53923U 22119AP  24003.06234409  .00001982  00000-0  14259-3 0  9998,2 53923  53.2174 290.1454 0001584  77.3363 282.7806 15.08845886 71147,6917.862,95.437,540.823,538.632,0.0
53923.0,STARLINK-5004,PAYLOAD,2024-01-03 04:40:32,15.08845684,0.0001547,53.2172,289.552,76.259,283.8574,0.00013974,1.937e-05,0.0,0 STARLINK-5004,1 53923U 22119AP  24003.19482392  .00001937  00000-0  13974-3 0  9991,2 53923  53.2172 289.5520 0001547  76.2590 283.8574 15.08845684 71588,6917.863,95.437,540.798,538.658,0.0
53923.0,STARLINK-5004,PAYLOAD,2024-01-03 22:09:47,15.08845059,0.0001466,53.2181,286.2789,101.4216,258.694,3.5241e-05,2.73e-06,0.0,0 STARLINK-5004,1 53923U 22119AP  24003.92346216  .00000273  00000-0  35241-4 0  9990,2 53923  53.2181 286.2789 0001466 101.4216 258.6940 15.08845059 71690,6917.865,95.437,540.744,538.716,0.0
53923.0,STARLINK-5004,PAYLOAD,2024-01-04 04:31:19,15.08844494,0.0001501,53.2171,285.091,104.8333,255.2826,0.00010941,1.454e-05,0.0,0 STARLINK-5004,1 53923U 22119AP  24004.18842225  .00001454  00000-0  10941-3 0  9991,2 53923  53.2171 285.0910 0001501 104.8333 255.2826 15.08844494 71316,6917.867,95.437,540.77,538.693,0.0
53923.0,STARLINK-5004,PAYLOAD,2024-01-04 22:00:34,15.08838263,0.0001449,53.217,281.8195,96.9091,263.2066,7.5607e-05,9.15e-06,0.0,0 STARLINK-5004,1 53923U 22119AP  24004.91706591  .00000915  00000-0  75607-4 0  9999,2 53923  53.2170 281.8195 0001449  96.9091 263.2066 15.08838263 71847,6917.886,95.438,540.753,538.748,0.0
53923.0,STARLINK-5004,PAYLOAD,2024-01-04 23:35:57,15.08838644,0.0001459,53.2172,281.5221,95.0017,265.1141,7.152e-05,8.5e-06,0.0,0 STARLINK-5004,1 53923U 22119AP  24004.98330571  .00000850  00000-0  71520-4 0  9995,2 53923  53.2172 281.5221 0001459  95.0017 265.1141 15.08838644 71438,6917.885,95.438,540.759,538.74,0.0
53923.0,STARLINK-5004,PAYLOAD,2024-01-05 21:51:21,15.08839778,0.000139,53.2178,277.3614,93.6398,266.4753,7.0271e-05,8.31e-06,0.0,0 STARLINK-5004,1 53923U 22119AP  24005.91066779  .00000831  00000-0  70271-4 0  9996,2 53923  53.2178 277.3614 0001390  93.6398 266.4753 15.08839778 71996,6917.881,95.438,540.708,538.784,0.0
53923.0,STARLINK-5004,PAYLOAD,2024-01-05 23:26:44,15.08840718,0.0001392,53.2176,277.064,91.3249,268.7903,7.6425e-05,9.29e-06,0.0,0 STARLINK-5004,1 53923U 22119AP  24005.97690698  .00000929  00000-0  76425-4 0  9990,2 53923  53.2176 277.0640 0001392  91.3249 268.7903 15.08840718 72003,6917.878,95.438,540.706,538.78,0.0
53923.0,STARLINK-5004,PAYLOAD,2024-01-06 18:31:22,15.08835035,0.0001475,53.2179,273.497,96.2315,263.8846,9.4155e-05,1.211e-05,0.0,0 STARLINK-5004,1 53923U 22119AP  24006.77179195  .00001211  00000-0  94155-4 0  9998,2 53923  53.2179 273.4970 0001475  96.2315 263.8846 15.08835035 71706,6917.896,95.438,540.781,538.74,0.0
53923.0,STARLINK-5004,PAYLOAD,2024-01-06 21:42:09,15.08834684,0.0001462,53.2177,272.9022,95.0101,265.1058,8.4594e-05,1.058e-05,0.0,0 STARLINK-5004,1 53923U 22119AP  24006.90427249  .00001058  00000-0  84594-4 0  9994,2 53923  53.2177 272.9022 0001462  95.0101 265.1058 15.08834684 72140,6917.897,95.438,540.773,538.75,0.0
53923.0,STARLINK-5004,PAYLOAD,2024-01-07 04:03:41,15.08837642,0.0001497,53.2176,271.7125,97.1524,262.9638,0.00010139,1.326e-05,0.0,0 STARLINK-5004,1 53923U 22119AP  24007.16923077  .00001326  00000-0  10139-3 0  9994,2 53923  53.2176 271.7125 0001497  97.1524 262.9638 15.08837642 72180,6917.888,95.438,540.788,538.717,0.0
53923.0,STARLINK-5004,PAYLOAD,2024-01-07 21:32:56,15.08838165,0.0001496,53.2171,268.4409,99.8338,260.2823,5.2735e-05,5.51e-06,0.0,0 STARLINK-5004,1 53923U 22119AP  24007.89787372  .00000551  00000-0  52735-4 0  9998,2 53923  53.2171 268.4409 0001496  99.8338 260.2823 15.08838165 72294,6917.886,95.438,540.786,538.716,0.0
53923.0,STARLINK-5004,PAYLOAD,2024-01-08 00:43:42,15.08842335,0.0001426,53.2167,267.8458,91.8104,268.3052,8.2216e-05,1.021e-05,0.0,0 STARLINK-5004,1 53923U 22119AP  24008.03035055  .00001021  00000-0  82216-4 0  9999,2 53923  53.2167 267.8458 0001426  91.8104 268.3052 15.08842335 71894,6917.873,95.437,540.725,538.752,0.0
53923.0,STARLINK-5004,PAYLOAD,2024-01-08 21:23:43,15.08841586,0.0001457,53.2167,263.9795,86.4779,273.638,7.7769e-05,9.5e-06,0.0,0 STARLINK-5004,1 53923U 22119AP  24008.89147197  .00000950  00000-0  77769-4 0  9991,2 53923  53.2167 263.9795 0001457  86.4779 273.6380 15.08841586 72449,6917.876,95.437,540.748,538.733,0.0
53923.0,STARLINK-5004,PAYLOAD,2024-01-09 00:34:29,15.08827173,0.0001636,53.2172,263.3838,89.8267,270.2913,0.00033664,5.072e-05,0.0,0 STARLINK-5004,1 53923U 22119AP  24009.02395626  .00005072  00000-0  33664-3 0  9994,2 53923  53.2172 263.3838 0001636  89.8267 270.2913 15.08827173 72042,6917.92,95.438,540.916,538.653,0.0
53923.0,STARLINK-5004,PAYLOAD,2024-01-09 21:14:30,15.0884383,0.0001439,53.2163,259.521,84.0109,276.1047,5.8677e-06,-1.95e-06,0.0,0 STARLINK-5004,1 53923U 22119AP  24009.88507379 -.00000195  00000-0  58677-5 0  9993,2 53923  53.2163 259.5210 0001439  84.0109 276.1047 15.08843830 72597,6917.869,95.437,540.729,538.738,0.0
53923.0,STARLINK-5004,PAYLOAD,2024-01-09 22:49:53,15.08842995,0.0001606,53.2165,259.2236,74.1776,285.9393,5.6593e-05,6.13e-06,0.0,0 STARLINK-5004,1 53923U 22119AP  24009.95131337  .00000613  00000-0  56593-4 0  9996,2 53923  53.2165 259.2236 0001606  74.1776 285.9393 15.08842995 72605,6917.871,95.437,540.847,538.625,0.0
53923.0,STARLINK-5004,PAYLOAD,2024-01-10 19:29:54,15.08840442,0.0001333,53.2163,255.3574,85.5946,274.5198,8.4143e-05,1.051e-05,0.0,0 STARLINK-5004,1 53923U 22119AP  24010.81243255  .00001051  00000-0  84143-4 0  9995,2 53923  53.2163 255.3574 0001333  85.5946 274.5198 15.08840442 72317,6917.879,95.438,540.666,538.822,0.0
53923.0,STARLINK-5004,PAYLOAD,2024-01-10 22:40:40,15.08851196,0.0001413,53.2163,254.7628,85.2965,274.8188,2.0268e-05,3.5e-07,0.0,0 STARLINK-5004,1 53923U 22119AP  24010.94490842  .00000035  00000-0  20268-4 0  9994,2 53923  53.2163 254.7628 0001413  85.2965 274.8188 15.08851196 72339,6917.846,95.437,540.689,538.734,0.0
53923.0,STARLINK-5004,PAYLOAD,2024-01-11 19:20:41,15.08839157,0.0001445,53.216,250.896,94.9633,265.1524,4.1529e-05,3.73e-06,0.0,0 STARLINK-5004,1 53923U 22119AP  24011.80603504  .00000373  00000-0  41529-4 0  9999,2 53923  53.2160 250.8960 0001445  94.9633 265.1524 15.08839157 72460,6917.883,95.438,540.748,538.748,0.0
53923.0,STARLINK-5004,PAYLOAD,2024-01-11 20:56:04,15.08838121,0.0001405,53.2159,250.5988,96.6485,263.4667,3.4576e-05,2.62e-06,0.0,0 STARLINK-5004,1 53923U 22119AP  24011.87227572  .00000262  00000-0  34576-4 0  9994,2 53923  53.2159 250.5988 0001405  96.6485 263.4667 15.08838121 72891,6917.886,95.438,540.723,538.779,0.0
53923.0,STARLINK-5004,PAYLOAD,2024-01-12 01:42:13,15.08844332,0.0001347,53.2164,249.7066,85.5776,274.537,6.6147e-05,7.65e-06,0.0,0 STARLINK-5004,1 53923U 22119AP  24012.07099097  .00000765  00000-0  66147-4 0  9993,2 53923  53.2164 249.7066 0001347  85.5776 274.5370 15.08844332 72928,6917.867,95.437,540.664,538.8,0.0
53923.0,STARLINK-5004,PAYLOAD,2024-01-12 22:22:15,15.08837122,0.0001388,53.217,245.838,99.1793,260.9356,-4.6616e-05,-1.03e-05,0.0,0 STARLINK-5004,1 53923U 22119AP  24012.93212053 -.00001030  00000-0 -46616-4 0  9994,2 53923  53.2170 245.8380 0001388  99.1793 260.9356 15.08837122 73053,6917.889,95.438,540.714,538.794,0.0
53923.0,STARLINK-5004,PAYLOAD,2024-01-13 20:37:38,15.08840745,0.0001374,53.2171,241.6743,92.0262,268.0887,0.00010265,1.346e-05,0.0,0 STARLINK-5004,1 53923U 22119AP  24013.85947697  .00001346  00000-0  10265-3 0  9993,2 53923  53.2171 241.6743 0001374  92.0262 268.0887 15.08840745 72770,6917.878,95.438,540.694,538.793,0.0
53923.0,STARLINK-5004,PAYLOAD,2024-01-14 20:28:26,15.08841234,0.0001346,53.2158,237.2132,66.3676,293.7457,0.00011629,1.563e-05,0.0,0 STARLINK-5004,1 53923U 22119AP  24014.85307941  .00001563  00000-0  11629-3 0  9992,2 53923  53.2158 237.2132 0001346  66.3676 293.7457 15.08841234 73346,6917.877,95.437,540.673,538.81,0.0
53923.0,STARLINK-5004,PAYLOAD,2024-01-14 23:39:12,15.08845331,0.0001346,53.2167,236.6222,86.6118,273.5028,0.00015744,2.219e-05,0.0,0 STARLINK-5004,1 53923U 22119AP  24014.98555557  .00002219  00000-0  15744-3 0  9995,2 53923  53.2167 236.6222 0001346  86.6118 273.5028 15.08845331 72942,6917.864,95.437,540.66,538.798,0.0
